[
  {
    "Year":2001,
    "sa4name":"Ballarat",
    "Post_Code":50902,
    "value":0.8,
    "Installations":1,
    "long":2157.624586,
    "lat":-561.057168
  },
  {
    "Year":2001,
    "sa4name":"Bendigo",
    "Post_Code":87502,
    "value":1.4,
    "Installations":1,
    "long":3604.34159,
    "lat":-921.581791
  },
  {
    "Year":2001,
    "sa4name":"Geelong",
    "Post_Code":84569,
    "value":0.0,
    "Installations":0,
    "long":3751.2343433,
    "lat":-991.6892179
  },
  {
    "Year":2001,
    "sa4name":"Hume",
    "Post_Code":225285,
    "value":1.0,
    "Installations":1,
    "long":8919.4876713,
    "lat":-2239.95641243
  },
  {
    "Year":2001,
    "sa4name":"Latrobe - Gippsland",
    "Post_Code":330581,
    "value":2.012,
    "Installations":3,
    "long":12474.6198974,
    "lat":-3234.6433223
  },
  {
    "Year":2001,
    "sa4name":"Melbourne - Inner",
    "Post_Code":92319,
    "value":1.53,
    "Installations":1,
    "long":4349.2115062,
    "lat":-1134.24786374
  },
  {
    "Year":2001,
    "sa4name":"Melbourne - Inner East",
    "Post_Code":49911,
    "value":3.36,
    "Installations":2,
    "long":2321.480315,
    "lat":-604.99284
  },
  {
    "Year":2001,
    "sa4name":"Melbourne - Inner South",
    "Post_Code":73083,
    "value":0.0,
    "Installations":0,
    "long":3335.967619,
    "lat":-872.246244
  },
  {
    "Year":2001,
    "sa4name":"Melbourne - North East",
    "Post_Code":116645,
    "value":0.0,
    "Installations":0,
    "long":5078.952824,
    "lat":-1317.256197
  },
  {
    "Year":2001,
    "sa4name":"Melbourne - North West",
    "Post_Code":113912,
    "value":0.0,
    "Installations":0,
    "long":5069.059,
    "lat":-1314.652238
  },
  {
    "Year":2001,
    "sa4name":"Melbourne - Outer East",
    "Post_Code":154251,
    "value":2.24,
    "Installations":2,
    "long":6540.785905,
    "lat":-1701.82649054
  },
  {
    "Year":2001,
    "sa4name":"Melbourne - Outer East ",
    "Post_Code":3176,
    "value":0.0,
    "Installations":0,
    "long":145.23,
    "lat":-37.8992
  },
  {
    "Year":2001,
    "sa4name":"Melbourne - South East",
    "Post_Code":152591,
    "value":1.5,
    "Installations":1,
    "long":6249.452835,
    "lat":-1634.236672
  },
  {
    "Year":2001,
    "sa4name":"Melbourne - West",
    "Post_Code":102785,
    "value":0.0,
    "Installations":0,
    "long":4775.4959745,
    "lat":-1246.71414977
  },
  {
    "Year":2001,
    "sa4name":"Mornington Peninsula",
    "Post_Code":118184,
    "value":0.0,
    "Installations":0,
    "long":4496.551039,
    "lat":-1186.81035263
  },
  {
    "Year":2001,
    "sa4name":"North West",
    "Post_Code":289238,
    "value":1.65,
    "Installations":2,
    "long":11851.3009677,
    "lat":-2980.05910826
  },
  {
    "Year":2001,
    "sa4name":"Shepparton",
    "Post_Code":184674,
    "value":0.0,
    "Installations":0,
    "long":7406.0825331,
    "lat":-1853.02819011
  },
  {
    "Year":2001,
    "sa4name":"South Australia - South East",
    "Post_Code":6808,
    "value":0.0,
    "Installations":0,
    "long":282.7545389,
    "lat":-72.64635026
  },
  {
    "Year":2001,
    "sa4name":"Warrnambool and South West",
    "Post_Code":236816,
    "value":3.6,
    "Installations":2,
    "long":10281.1087042,
    "lat":-2740.52939767
  },
  {
    "Year":2002,
    "sa4name":"Ballarat",
    "Post_Code":50902,
    "value":0.0,
    "Installations":0,
    "long":2157.624586,
    "lat":-561.057168
  },
  {
    "Year":2002,
    "sa4name":"Bendigo",
    "Post_Code":87502,
    "value":3.09,
    "Installations":4,
    "long":3604.34159,
    "lat":-921.581791
  },
  {
    "Year":2002,
    "sa4name":"Geelong",
    "Post_Code":84569,
    "value":2.75,
    "Installations":2,
    "long":3751.2343433,
    "lat":-991.6892179
  },
  {
    "Year":2002,
    "sa4name":"Hume",
    "Post_Code":225285,
    "value":1.54,
    "Installations":1,
    "long":8919.4876713,
    "lat":-2239.95641243
  },
  {
    "Year":2002,
    "sa4name":"Latrobe - Gippsland",
    "Post_Code":330581,
    "value":2.64,
    "Installations":2,
    "long":12474.6198974,
    "lat":-3234.6433223
  },
  {
    "Year":2002,
    "sa4name":"Melbourne - Inner",
    "Post_Code":92319,
    "value":0.0,
    "Installations":0,
    "long":4349.2115062,
    "lat":-1134.24786374
  },
  {
    "Year":2002,
    "sa4name":"Melbourne - Inner East",
    "Post_Code":49911,
    "value":0.0,
    "Installations":0,
    "long":2321.480315,
    "lat":-604.99284
  },
  {
    "Year":2002,
    "sa4name":"Melbourne - Inner South",
    "Post_Code":73083,
    "value":0.0,
    "Installations":0,
    "long":3335.967619,
    "lat":-872.246244
  },
  {
    "Year":2002,
    "sa4name":"Melbourne - North East",
    "Post_Code":116645,
    "value":1.35,
    "Installations":1,
    "long":5078.952824,
    "lat":-1317.256197
  },
  {
    "Year":2002,
    "sa4name":"Melbourne - North West",
    "Post_Code":113912,
    "value":0.0,
    "Installations":0,
    "long":5069.059,
    "lat":-1314.652238
  },
  {
    "Year":2002,
    "sa4name":"Melbourne - Outer East",
    "Post_Code":154251,
    "value":1.5,
    "Installations":1,
    "long":6540.785905,
    "lat":-1701.82649054
  },
  {
    "Year":2002,
    "sa4name":"Melbourne - Outer East ",
    "Post_Code":3176,
    "value":0.0,
    "Installations":0,
    "long":145.23,
    "lat":-37.8992
  },
  {
    "Year":2002,
    "sa4name":"Melbourne - South East",
    "Post_Code":152591,
    "value":0.0,
    "Installations":0,
    "long":6249.452835,
    "lat":-1634.236672
  },
  {
    "Year":2002,
    "sa4name":"Melbourne - West",
    "Post_Code":102785,
    "value":1.2,
    "Installations":1,
    "long":4775.4959745,
    "lat":-1246.71414977
  },
  {
    "Year":2002,
    "sa4name":"Mornington Peninsula",
    "Post_Code":118184,
    "value":2.94,
    "Installations":2,
    "long":4496.551039,
    "lat":-1186.81035263
  },
  {
    "Year":2002,
    "sa4name":"North West",
    "Post_Code":289238,
    "value":0.45,
    "Installations":1,
    "long":11851.3009677,
    "lat":-2980.05910826
  },
  {
    "Year":2002,
    "sa4name":"Shepparton",
    "Post_Code":184674,
    "value":2.75,
    "Installations":2,
    "long":7406.0825331,
    "lat":-1853.02819011
  },
  {
    "Year":2002,
    "sa4name":"South Australia - South East",
    "Post_Code":6808,
    "value":0.0,
    "Installations":0,
    "long":282.7545389,
    "lat":-72.64635026
  },
  {
    "Year":2002,
    "sa4name":"Warrnambool and South West",
    "Post_Code":236816,
    "value":2.85,
    "Installations":2,
    "long":10281.1087042,
    "lat":-2740.52939767
  },
  {
    "Year":2003,
    "sa4name":"Ballarat",
    "Post_Code":50902,
    "value":0.48,
    "Installations":1,
    "long":2157.624586,
    "lat":-561.057168
  },
  {
    "Year":2003,
    "sa4name":"Bendigo",
    "Post_Code":87502,
    "value":4.515,
    "Installations":4,
    "long":3604.34159,
    "lat":-921.581791
  },
  {
    "Year":2003,
    "sa4name":"Geelong",
    "Post_Code":84569,
    "value":1.5,
    "Installations":1,
    "long":3751.2343433,
    "lat":-991.6892179
  },
  {
    "Year":2003,
    "sa4name":"Hume",
    "Post_Code":225285,
    "value":13.45,
    "Installations":14,
    "long":8919.4876713,
    "lat":-2239.95641243
  },
  {
    "Year":2003,
    "sa4name":"Latrobe - Gippsland",
    "Post_Code":330581,
    "value":11.788,
    "Installations":11,
    "long":12474.6198974,
    "lat":-3234.6433223
  },
  {
    "Year":2003,
    "sa4name":"Melbourne - Inner",
    "Post_Code":92319,
    "value":10.7,
    "Installations":9,
    "long":4349.2115062,
    "lat":-1134.24786374
  },
  {
    "Year":2003,
    "sa4name":"Melbourne - Inner East",
    "Post_Code":49911,
    "value":3.3,
    "Installations":2,
    "long":2321.480315,
    "lat":-604.99284
  },
  {
    "Year":2003,
    "sa4name":"Melbourne - Inner South",
    "Post_Code":73083,
    "value":5.64,
    "Installations":5,
    "long":3335.967619,
    "lat":-872.246244
  },
  {
    "Year":2003,
    "sa4name":"Melbourne - North East",
    "Post_Code":116645,
    "value":4.77,
    "Installations":4,
    "long":5078.952824,
    "lat":-1317.256197
  },
  {
    "Year":2003,
    "sa4name":"Melbourne - North West",
    "Post_Code":113912,
    "value":4.305,
    "Installations":4,
    "long":5069.059,
    "lat":-1314.652238
  },
  {
    "Year":2003,
    "sa4name":"Melbourne - Outer East",
    "Post_Code":154251,
    "value":8.04,
    "Installations":5,
    "long":6540.785905,
    "lat":-1701.82649054
  },
  {
    "Year":2003,
    "sa4name":"Melbourne - Outer East ",
    "Post_Code":3176,
    "value":0.0,
    "Installations":0,
    "long":145.23,
    "lat":-37.8992
  },
  {
    "Year":2003,
    "sa4name":"Melbourne - South East",
    "Post_Code":152591,
    "value":11.64,
    "Installations":8,
    "long":6249.452835,
    "lat":-1634.236672
  },
  {
    "Year":2003,
    "sa4name":"Melbourne - West",
    "Post_Code":102785,
    "value":12.22,
    "Installations":7,
    "long":4775.4959745,
    "lat":-1246.71414977
  },
  {
    "Year":2003,
    "sa4name":"Mornington Peninsula",
    "Post_Code":118184,
    "value":8.54,
    "Installations":6,
    "long":4496.551039,
    "lat":-1186.81035263
  },
  {
    "Year":2003,
    "sa4name":"North West",
    "Post_Code":289238,
    "value":8.805,
    "Installations":7,
    "long":11851.3009677,
    "lat":-2980.05910826
  },
  {
    "Year":2003,
    "sa4name":"Shepparton",
    "Post_Code":184674,
    "value":4.38,
    "Installations":4,
    "long":7406.0825331,
    "lat":-1853.02819011
  },
  {
    "Year":2003,
    "sa4name":"South Australia - South East",
    "Post_Code":6808,
    "value":0.0,
    "Installations":0,
    "long":282.7545389,
    "lat":-72.64635026
  },
  {
    "Year":2003,
    "sa4name":"Warrnambool and South West",
    "Post_Code":236816,
    "value":8.63,
    "Installations":6,
    "long":10281.1087042,
    "lat":-2740.52939767
  },
  {
    "Year":2004,
    "sa4name":"Ballarat",
    "Post_Code":50902,
    "value":2.5,
    "Installations":2,
    "long":2157.624586,
    "lat":-561.057168
  },
  {
    "Year":2004,
    "sa4name":"Bendigo",
    "Post_Code":87502,
    "value":5.375,
    "Installations":4,
    "long":3604.34159,
    "lat":-921.581791
  },
  {
    "Year":2004,
    "sa4name":"Geelong",
    "Post_Code":84569,
    "value":9.54,
    "Installations":7,
    "long":3751.2343433,
    "lat":-991.6892179
  },
  {
    "Year":2004,
    "sa4name":"Hume",
    "Post_Code":225285,
    "value":24.865,
    "Installations":27,
    "long":8919.4876713,
    "lat":-2239.95641243
  },
  {
    "Year":2004,
    "sa4name":"Latrobe - Gippsland",
    "Post_Code":330581,
    "value":20.579,
    "Installations":28,
    "long":12474.6198974,
    "lat":-3234.6433223
  },
  {
    "Year":2004,
    "sa4name":"Melbourne - Inner",
    "Post_Code":92319,
    "value":4.2,
    "Installations":5,
    "long":4349.2115062,
    "lat":-1134.24786374
  },
  {
    "Year":2004,
    "sa4name":"Melbourne - Inner East",
    "Post_Code":49911,
    "value":6.36,
    "Installations":4,
    "long":2321.480315,
    "lat":-604.99284
  },
  {
    "Year":2004,
    "sa4name":"Melbourne - Inner South",
    "Post_Code":73083,
    "value":6.195,
    "Installations":6,
    "long":3335.967619,
    "lat":-872.246244
  },
  {
    "Year":2004,
    "sa4name":"Melbourne - North East",
    "Post_Code":116645,
    "value":11.91,
    "Installations":7,
    "long":5078.952824,
    "lat":-1317.256197
  },
  {
    "Year":2004,
    "sa4name":"Melbourne - North West",
    "Post_Code":113912,
    "value":4.18,
    "Installations":3,
    "long":5069.059,
    "lat":-1314.652238
  },
  {
    "Year":2004,
    "sa4name":"Melbourne - Outer East",
    "Post_Code":154251,
    "value":9.935,
    "Installations":9,
    "long":6540.785905,
    "lat":-1701.82649054
  },
  {
    "Year":2004,
    "sa4name":"Melbourne - Outer East ",
    "Post_Code":3176,
    "value":0.0,
    "Installations":0,
    "long":145.23,
    "lat":-37.8992
  },
  {
    "Year":2004,
    "sa4name":"Melbourne - South East",
    "Post_Code":152591,
    "value":12.4,
    "Installations":8,
    "long":6249.452835,
    "lat":-1634.236672
  },
  {
    "Year":2004,
    "sa4name":"Melbourne - West",
    "Post_Code":102785,
    "value":8.65,
    "Installations":5,
    "long":4775.4959745,
    "lat":-1246.71414977
  },
  {
    "Year":2004,
    "sa4name":"Mornington Peninsula",
    "Post_Code":118184,
    "value":17.58,
    "Installations":11,
    "long":4496.551039,
    "lat":-1186.81035263
  },
  {
    "Year":2004,
    "sa4name":"North West",
    "Post_Code":289238,
    "value":9.265,
    "Installations":10,
    "long":11851.3009677,
    "lat":-2980.05910826
  },
  {
    "Year":2004,
    "sa4name":"Shepparton",
    "Post_Code":184674,
    "value":3.86,
    "Installations":5,
    "long":7406.0825331,
    "lat":-1853.02819011
  },
  {
    "Year":2004,
    "sa4name":"South Australia - South East",
    "Post_Code":6808,
    "value":1.28,
    "Installations":1,
    "long":282.7545389,
    "lat":-72.64635026
  },
  {
    "Year":2004,
    "sa4name":"Warrnambool and South West",
    "Post_Code":236816,
    "value":13.49,
    "Installations":10,
    "long":10281.1087042,
    "lat":-2740.52939767
  },
  {
    "Year":2005,
    "sa4name":"Ballarat",
    "Post_Code":50902,
    "value":5.12,
    "Installations":4,
    "long":2157.624586,
    "lat":-561.057168
  },
  {
    "Year":2005,
    "sa4name":"Bendigo",
    "Post_Code":87502,
    "value":9.68,
    "Installations":10,
    "long":3604.34159,
    "lat":-921.581791
  },
  {
    "Year":2005,
    "sa4name":"Geelong",
    "Post_Code":84569,
    "value":7.735,
    "Installations":8,
    "long":3751.2343433,
    "lat":-991.6892179
  },
  {
    "Year":2005,
    "sa4name":"Hume",
    "Post_Code":225285,
    "value":29.19,
    "Installations":27,
    "long":8919.4876713,
    "lat":-2239.95641243
  },
  {
    "Year":2005,
    "sa4name":"Latrobe - Gippsland",
    "Post_Code":330581,
    "value":48.505,
    "Installations":42,
    "long":12474.6198974,
    "lat":-3234.6433223
  },
  {
    "Year":2005,
    "sa4name":"Melbourne - Inner",
    "Post_Code":92319,
    "value":19.725,
    "Installations":14,
    "long":4349.2115062,
    "lat":-1134.24786374
  },
  {
    "Year":2005,
    "sa4name":"Melbourne - Inner East",
    "Post_Code":49911,
    "value":19.96,
    "Installations":12,
    "long":2321.480315,
    "lat":-604.99284
  },
  {
    "Year":2005,
    "sa4name":"Melbourne - Inner South",
    "Post_Code":73083,
    "value":19.05,
    "Installations":15,
    "long":3335.967619,
    "lat":-872.246244
  },
  {
    "Year":2005,
    "sa4name":"Melbourne - North East",
    "Post_Code":116645,
    "value":12.555,
    "Installations":11,
    "long":5078.952824,
    "lat":-1317.256197
  },
  {
    "Year":2005,
    "sa4name":"Melbourne - North West",
    "Post_Code":113912,
    "value":4.355,
    "Installations":5,
    "long":5069.059,
    "lat":-1314.652238
  },
  {
    "Year":2005,
    "sa4name":"Melbourne - Outer East",
    "Post_Code":154251,
    "value":21.26,
    "Installations":23,
    "long":6540.785905,
    "lat":-1701.82649054
  },
  {
    "Year":2005,
    "sa4name":"Melbourne - Outer East ",
    "Post_Code":3176,
    "value":0.0,
    "Installations":0,
    "long":145.23,
    "lat":-37.8992
  },
  {
    "Year":2005,
    "sa4name":"Melbourne - South East",
    "Post_Code":152591,
    "value":6.815,
    "Installations":9,
    "long":6249.452835,
    "lat":-1634.236672
  },
  {
    "Year":2005,
    "sa4name":"Melbourne - West",
    "Post_Code":102785,
    "value":11.935,
    "Installations":13,
    "long":4775.4959745,
    "lat":-1246.71414977
  },
  {
    "Year":2005,
    "sa4name":"Mornington Peninsula",
    "Post_Code":118184,
    "value":27.36,
    "Installations":16,
    "long":4496.551039,
    "lat":-1186.81035263
  },
  {
    "Year":2005,
    "sa4name":"North West",
    "Post_Code":289238,
    "value":13.325,
    "Installations":13,
    "long":11851.3009677,
    "lat":-2980.05910826
  },
  {
    "Year":2005,
    "sa4name":"Shepparton",
    "Post_Code":184674,
    "value":20.15,
    "Installations":16,
    "long":7406.0825331,
    "lat":-1853.02819011
  },
  {
    "Year":2005,
    "sa4name":"South Australia - South East",
    "Post_Code":6808,
    "value":1.75,
    "Installations":1,
    "long":282.7545389,
    "lat":-72.64635026
  },
  {
    "Year":2005,
    "sa4name":"Warrnambool and South West",
    "Post_Code":236816,
    "value":17.24,
    "Installations":14,
    "long":10281.1087042,
    "lat":-2740.52939767
  },
  {
    "Year":2006,
    "sa4name":"Ballarat",
    "Post_Code":50902,
    "value":4.28,
    "Installations":3,
    "long":2157.624586,
    "lat":-561.057168
  },
  {
    "Year":2006,
    "sa4name":"Bendigo",
    "Post_Code":87502,
    "value":6.013,
    "Installations":6,
    "long":3604.34159,
    "lat":-921.581791
  },
  {
    "Year":2006,
    "sa4name":"Geelong",
    "Post_Code":84569,
    "value":4.375,
    "Installations":4,
    "long":3751.2343433,
    "lat":-991.6892179
  },
  {
    "Year":2006,
    "sa4name":"Hume",
    "Post_Code":225285,
    "value":29.79,
    "Installations":32,
    "long":8919.4876713,
    "lat":-2239.95641243
  },
  {
    "Year":2006,
    "sa4name":"Latrobe - Gippsland",
    "Post_Code":330581,
    "value":28.765,
    "Installations":26,
    "long":12474.6198974,
    "lat":-3234.6433223
  },
  {
    "Year":2006,
    "sa4name":"Melbourne - Inner",
    "Post_Code":92319,
    "value":17.52,
    "Installations":11,
    "long":4349.2115062,
    "lat":-1134.24786374
  },
  {
    "Year":2006,
    "sa4name":"Melbourne - Inner East",
    "Post_Code":49911,
    "value":3.54,
    "Installations":3,
    "long":2321.480315,
    "lat":-604.99284
  },
  {
    "Year":2006,
    "sa4name":"Melbourne - Inner South",
    "Post_Code":73083,
    "value":29.755,
    "Installations":21,
    "long":3335.967619,
    "lat":-872.246244
  },
  {
    "Year":2006,
    "sa4name":"Melbourne - North East",
    "Post_Code":116645,
    "value":16.1,
    "Installations":7,
    "long":5078.952824,
    "lat":-1317.256197
  },
  {
    "Year":2006,
    "sa4name":"Melbourne - North West",
    "Post_Code":113912,
    "value":1.2,
    "Installations":1,
    "long":5069.059,
    "lat":-1314.652238
  },
  {
    "Year":2006,
    "sa4name":"Melbourne - Outer East",
    "Post_Code":154251,
    "value":9.055,
    "Installations":9,
    "long":6540.785905,
    "lat":-1701.82649054
  },
  {
    "Year":2006,
    "sa4name":"Melbourne - Outer East ",
    "Post_Code":3176,
    "value":0.0,
    "Installations":0,
    "long":145.23,
    "lat":-37.8992
  },
  {
    "Year":2006,
    "sa4name":"Melbourne - South East",
    "Post_Code":152591,
    "value":16.405,
    "Installations":12,
    "long":6249.452835,
    "lat":-1634.236672
  },
  {
    "Year":2006,
    "sa4name":"Melbourne - West",
    "Post_Code":102785,
    "value":19.31,
    "Installations":33,
    "long":4775.4959745,
    "lat":-1246.71414977
  },
  {
    "Year":2006,
    "sa4name":"Mornington Peninsula",
    "Post_Code":118184,
    "value":16.27,
    "Installations":10,
    "long":4496.551039,
    "lat":-1186.81035263
  },
  {
    "Year":2006,
    "sa4name":"North West",
    "Post_Code":289238,
    "value":11.23,
    "Installations":8,
    "long":11851.3009677,
    "lat":-2980.05910826
  },
  {
    "Year":2006,
    "sa4name":"Shepparton",
    "Post_Code":184674,
    "value":5.42,
    "Installations":7,
    "long":7406.0825331,
    "lat":-1853.02819011
  },
  {
    "Year":2006,
    "sa4name":"South Australia - South East",
    "Post_Code":6808,
    "value":0.0,
    "Installations":0,
    "long":282.7545389,
    "lat":-72.64635026
  },
  {
    "Year":2006,
    "sa4name":"Warrnambool and South West",
    "Post_Code":236816,
    "value":6.085,
    "Installations":7,
    "long":10281.1087042,
    "lat":-2740.52939767
  },
  {
    "Year":2007,
    "sa4name":"Ballarat",
    "Post_Code":50902,
    "value":32.676,
    "Installations":15,
    "long":2157.624586,
    "lat":-561.057168
  },
  {
    "Year":2007,
    "sa4name":"Bendigo",
    "Post_Code":87502,
    "value":39.376,
    "Installations":27,
    "long":3604.34159,
    "lat":-921.581791
  },
  {
    "Year":2007,
    "sa4name":"Geelong",
    "Post_Code":84569,
    "value":50.947,
    "Installations":30,
    "long":3751.2343433,
    "lat":-991.6892179
  },
  {
    "Year":2007,
    "sa4name":"Hume",
    "Post_Code":225285,
    "value":86.018,
    "Installations":66,
    "long":8919.4876713,
    "lat":-2239.95641243
  },
  {
    "Year":2007,
    "sa4name":"Latrobe - Gippsland",
    "Post_Code":330581,
    "value":80.183,
    "Installations":64,
    "long":12474.6198974,
    "lat":-3234.6433223
  },
  {
    "Year":2007,
    "sa4name":"Melbourne - Inner",
    "Post_Code":92319,
    "value":68.816,
    "Installations":51,
    "long":4349.2115062,
    "lat":-1134.24786374
  },
  {
    "Year":2007,
    "sa4name":"Melbourne - Inner East",
    "Post_Code":49911,
    "value":69.183,
    "Installations":34,
    "long":2321.480315,
    "lat":-604.99284
  },
  {
    "Year":2007,
    "sa4name":"Melbourne - Inner South",
    "Post_Code":73083,
    "value":110.788,
    "Installations":66,
    "long":3335.967619,
    "lat":-872.246244
  },
  {
    "Year":2007,
    "sa4name":"Melbourne - North East",
    "Post_Code":116645,
    "value":22.954,
    "Installations":15,
    "long":5078.952824,
    "lat":-1317.256197
  },
  {
    "Year":2007,
    "sa4name":"Melbourne - North West",
    "Post_Code":113912,
    "value":45.952,
    "Installations":20,
    "long":5069.059,
    "lat":-1314.652238
  },
  {
    "Year":2007,
    "sa4name":"Melbourne - Outer East",
    "Post_Code":154251,
    "value":86.268,
    "Installations":53,
    "long":6540.785905,
    "lat":-1701.82649054
  },
  {
    "Year":2007,
    "sa4name":"Melbourne - Outer East ",
    "Post_Code":3176,
    "value":0.0,
    "Installations":0,
    "long":145.23,
    "lat":-37.8992
  },
  {
    "Year":2007,
    "sa4name":"Melbourne - South East",
    "Post_Code":152591,
    "value":84.55,
    "Installations":51,
    "long":6249.452835,
    "lat":-1634.236672
  },
  {
    "Year":2007,
    "sa4name":"Melbourne - West",
    "Post_Code":102785,
    "value":97.69,
    "Installations":186,
    "long":4775.4959745,
    "lat":-1246.71414977
  },
  {
    "Year":2007,
    "sa4name":"Mornington Peninsula",
    "Post_Code":118184,
    "value":101.984,
    "Installations":63,
    "long":4496.551039,
    "lat":-1186.81035263
  },
  {
    "Year":2007,
    "sa4name":"North West",
    "Post_Code":289238,
    "value":25.792,
    "Installations":22,
    "long":11851.3009677,
    "lat":-2980.05910826
  },
  {
    "Year":2007,
    "sa4name":"Shepparton",
    "Post_Code":184674,
    "value":65.545,
    "Installations":40,
    "long":7406.0825331,
    "lat":-1853.02819011
  },
  {
    "Year":2007,
    "sa4name":"South Australia - South East",
    "Post_Code":6808,
    "value":0.205,
    "Installations":1,
    "long":282.7545389,
    "lat":-72.64635026
  },
  {
    "Year":2007,
    "sa4name":"Warrnambool and South West",
    "Post_Code":236816,
    "value":41.333,
    "Installations":24,
    "long":10281.1087042,
    "lat":-2740.52939767
  },
  {
    "Year":2008,
    "sa4name":"Ballarat",
    "Post_Code":50902,
    "value":22.507,
    "Installations":19,
    "long":2157.624586,
    "lat":-561.057168
  },
  {
    "Year":2008,
    "sa4name":"Bendigo",
    "Post_Code":87502,
    "value":97.418,
    "Installations":68,
    "long":3604.34159,
    "lat":-921.581791
  },
  {
    "Year":2008,
    "sa4name":"Geelong",
    "Post_Code":84569,
    "value":151.565,
    "Installations":116,
    "long":3751.2343433,
    "lat":-991.6892179
  },
  {
    "Year":2008,
    "sa4name":"Hume",
    "Post_Code":225285,
    "value":141.098,
    "Installations":91,
    "long":8919.4876713,
    "lat":-2239.95641243
  },
  {
    "Year":2008,
    "sa4name":"Latrobe - Gippsland",
    "Post_Code":330581,
    "value":210.968,
    "Installations":167,
    "long":12474.6198974,
    "lat":-3234.6433223
  },
  {
    "Year":2008,
    "sa4name":"Melbourne - Inner",
    "Post_Code":92319,
    "value":224.179,
    "Installations":159,
    "long":4349.2115062,
    "lat":-1134.24786374
  },
  {
    "Year":2008,
    "sa4name":"Melbourne - Inner East",
    "Post_Code":49911,
    "value":186.572,
    "Installations":120,
    "long":2321.480315,
    "lat":-604.99284
  },
  {
    "Year":2008,
    "sa4name":"Melbourne - Inner South",
    "Post_Code":73083,
    "value":210.074,
    "Installations":143,
    "long":3335.967619,
    "lat":-872.246244
  },
  {
    "Year":2008,
    "sa4name":"Melbourne - North East",
    "Post_Code":116645,
    "value":204.56,
    "Installations":141,
    "long":5078.952824,
    "lat":-1317.256197
  },
  {
    "Year":2008,
    "sa4name":"Melbourne - North West",
    "Post_Code":113912,
    "value":138.775,
    "Installations":96,
    "long":5069.059,
    "lat":-1314.652238
  },
  {
    "Year":2008,
    "sa4name":"Melbourne - Outer East",
    "Post_Code":154251,
    "value":200.117,
    "Installations":142,
    "long":6540.785905,
    "lat":-1701.82649054
  },
  {
    "Year":2008,
    "sa4name":"Melbourne - Outer East ",
    "Post_Code":3176,
    "value":0.0,
    "Installations":0,
    "long":145.23,
    "lat":-37.8992
  },
  {
    "Year":2008,
    "sa4name":"Melbourne - South East",
    "Post_Code":152591,
    "value":198.273,
    "Installations":142,
    "long":6249.452835,
    "lat":-1634.236672
  },
  {
    "Year":2008,
    "sa4name":"Melbourne - West",
    "Post_Code":102785,
    "value":225.381,
    "Installations":259,
    "long":4775.4959745,
    "lat":-1246.71414977
  },
  {
    "Year":2008,
    "sa4name":"Mornington Peninsula",
    "Post_Code":118184,
    "value":193.115,
    "Installations":151,
    "long":4496.551039,
    "lat":-1186.81035263
  },
  {
    "Year":2008,
    "sa4name":"North West",
    "Post_Code":289238,
    "value":119.382,
    "Installations":92,
    "long":11851.3009677,
    "lat":-2980.05910826
  },
  {
    "Year":2008,
    "sa4name":"Shepparton",
    "Post_Code":184674,
    "value":115.932,
    "Installations":74,
    "long":7406.0825331,
    "lat":-1853.02819011
  },
  {
    "Year":2008,
    "sa4name":"South Australia - South East",
    "Post_Code":6808,
    "value":0.0,
    "Installations":0,
    "long":282.7545389,
    "lat":-72.64635026
  },
  {
    "Year":2008,
    "sa4name":"Warrnambool and South West",
    "Post_Code":236816,
    "value":89.969,
    "Installations":57,
    "long":10281.1087042,
    "lat":-2740.52939767
  },
  {
    "Year":2009,
    "sa4name":"Ballarat",
    "Post_Code":50902,
    "value":99.171,
    "Installations":76,
    "long":2157.624586,
    "lat":-561.057168
  },
  {
    "Year":2009,
    "sa4name":"Bendigo",
    "Post_Code":87502,
    "value":275.172,
    "Installations":220,
    "long":3604.34159,
    "lat":-921.581791
  },
  {
    "Year":2009,
    "sa4name":"Geelong",
    "Post_Code":84569,
    "value":569.553,
    "Installations":468,
    "long":3751.2343433,
    "lat":-991.6892179
  },
  {
    "Year":2009,
    "sa4name":"Hume",
    "Post_Code":225285,
    "value":437.807,
    "Installations":334,
    "long":8919.4876713,
    "lat":-2239.95641243
  },
  {
    "Year":2009,
    "sa4name":"Latrobe - Gippsland",
    "Post_Code":330581,
    "value":595.23,
    "Installations":425,
    "long":12474.6198974,
    "lat":-3234.6433223
  },
  {
    "Year":2009,
    "sa4name":"Melbourne - Inner",
    "Post_Code":92319,
    "value":427.525,
    "Installations":332,
    "long":4349.2115062,
    "lat":-1134.24786374
  },
  {
    "Year":2009,
    "sa4name":"Melbourne - Inner East",
    "Post_Code":49911,
    "value":497.112,
    "Installations":391,
    "long":2321.480315,
    "lat":-604.99284
  },
  {
    "Year":2009,
    "sa4name":"Melbourne - Inner South",
    "Post_Code":73083,
    "value":492.014,
    "Installations":395,
    "long":3335.967619,
    "lat":-872.246244
  },
  {
    "Year":2009,
    "sa4name":"Melbourne - North East",
    "Post_Code":116645,
    "value":657.166,
    "Installations":513,
    "long":5078.952824,
    "lat":-1317.256197
  },
  {
    "Year":2009,
    "sa4name":"Melbourne - North West",
    "Post_Code":113912,
    "value":590.263,
    "Installations":466,
    "long":5069.059,
    "lat":-1314.652238
  },
  {
    "Year":2009,
    "sa4name":"Melbourne - Outer East",
    "Post_Code":154251,
    "value":903.653,
    "Installations":734,
    "long":6540.785905,
    "lat":-1701.82649054
  },
  {
    "Year":2009,
    "sa4name":"Melbourne - Outer East ",
    "Post_Code":3176,
    "value":0.0,
    "Installations":0,
    "long":145.23,
    "lat":-37.8992
  },
  {
    "Year":2009,
    "sa4name":"Melbourne - South East",
    "Post_Code":152591,
    "value":1161.375,
    "Installations":965,
    "long":6249.452835,
    "lat":-1634.236672
  },
  {
    "Year":2009,
    "sa4name":"Melbourne - West",
    "Post_Code":102785,
    "value":1126.264,
    "Installations":916,
    "long":4775.4959745,
    "lat":-1246.71414977
  },
  {
    "Year":2009,
    "sa4name":"Mornington Peninsula",
    "Post_Code":118184,
    "value":867.349,
    "Installations":694,
    "long":4496.551039,
    "lat":-1186.81035263
  },
  {
    "Year":2009,
    "sa4name":"North West",
    "Post_Code":289238,
    "value":381.282,
    "Installations":311,
    "long":11851.3009677,
    "lat":-2980.05910826
  },
  {
    "Year":2009,
    "sa4name":"Shepparton",
    "Post_Code":184674,
    "value":1120.765,
    "Installations":971,
    "long":7406.0825331,
    "lat":-1853.02819011
  },
  {
    "Year":2009,
    "sa4name":"South Australia - South East",
    "Post_Code":6808,
    "value":4.03,
    "Installations":3,
    "long":282.7545389,
    "lat":-72.64635026
  },
  {
    "Year":2009,
    "sa4name":"Warrnambool and South West",
    "Post_Code":236816,
    "value":312.434,
    "Installations":219,
    "long":10281.1087042,
    "lat":-2740.52939767
  },
  {
    "Year":2010,
    "sa4name":"Ballarat",
    "Post_Code":50902,
    "value":985.861,
    "Installations":571,
    "long":2157.624586,
    "lat":-561.057168
  },
  {
    "Year":2010,
    "sa4name":"Bendigo",
    "Post_Code":87502,
    "value":1514.79,
    "Installations":890,
    "long":3604.34159,
    "lat":-921.581791
  },
  {
    "Year":2010,
    "sa4name":"Geelong",
    "Post_Code":84569,
    "value":3114.788,
    "Installations":1812,
    "long":3751.2343433,
    "lat":-991.6892179
  },
  {
    "Year":2010,
    "sa4name":"Hume",
    "Post_Code":225285,
    "value":1909.141,
    "Installations":995,
    "long":8919.4876713,
    "lat":-2239.95641243
  },
  {
    "Year":2010,
    "sa4name":"Latrobe - Gippsland",
    "Post_Code":330581,
    "value":4460.413,
    "Installations":2421,
    "long":12474.6198974,
    "lat":-3234.6433223
  },
  {
    "Year":2010,
    "sa4name":"Melbourne - Inner",
    "Post_Code":92319,
    "value":1547.281,
    "Installations":882,
    "long":4349.2115062,
    "lat":-1134.24786374
  },
  {
    "Year":2010,
    "sa4name":"Melbourne - Inner East",
    "Post_Code":49911,
    "value":2249.957,
    "Installations":1385,
    "long":2321.480315,
    "lat":-604.99284
  },
  {
    "Year":2010,
    "sa4name":"Melbourne - Inner South",
    "Post_Code":73083,
    "value":2926.46,
    "Installations":1760,
    "long":3335.967619,
    "lat":-872.246244
  },
  {
    "Year":2010,
    "sa4name":"Melbourne - North East",
    "Post_Code":116645,
    "value":4419.314,
    "Installations":2686,
    "long":5078.952824,
    "lat":-1317.256197
  },
  {
    "Year":2010,
    "sa4name":"Melbourne - North West",
    "Post_Code":113912,
    "value":3686.567,
    "Installations":2234,
    "long":5069.059,
    "lat":-1314.652238
  },
  {
    "Year":2010,
    "sa4name":"Melbourne - Outer East",
    "Post_Code":154251,
    "value":5840.501,
    "Installations":3745,
    "long":6540.785905,
    "lat":-1701.82649054
  },
  {
    "Year":2010,
    "sa4name":"Melbourne - Outer East ",
    "Post_Code":3176,
    "value":0.0,
    "Installations":0,
    "long":145.23,
    "lat":-37.8992
  },
  {
    "Year":2010,
    "sa4name":"Melbourne - South East",
    "Post_Code":152591,
    "value":6871.102,
    "Installations":4323,
    "long":6249.452835,
    "lat":-1634.236672
  },
  {
    "Year":2010,
    "sa4name":"Melbourne - West",
    "Post_Code":102785,
    "value":7729.324,
    "Installations":4880,
    "long":4775.4959745,
    "lat":-1246.71414977
  },
  {
    "Year":2010,
    "sa4name":"Mornington Peninsula",
    "Post_Code":118184,
    "value":5402.939,
    "Installations":3598,
    "long":4496.551039,
    "lat":-1186.81035263
  },
  {
    "Year":2010,
    "sa4name":"North West",
    "Post_Code":289238,
    "value":1664.588,
    "Installations":884,
    "long":11851.3009677,
    "lat":-2980.05910826
  },
  {
    "Year":2010,
    "sa4name":"Shepparton",
    "Post_Code":184674,
    "value":3047.131,
    "Installations":1801,
    "long":7406.0825331,
    "lat":-1853.02819011
  },
  {
    "Year":2010,
    "sa4name":"South Australia - South East",
    "Post_Code":6808,
    "value":20.33,
    "Installations":9,
    "long":282.7545389,
    "lat":-72.64635026
  },
  {
    "Year":2010,
    "sa4name":"Warrnambool and South West",
    "Post_Code":236816,
    "value":1568.722,
    "Installations":809,
    "long":10281.1087042,
    "lat":-2740.52939767
  },
  {
    "Year":2011,
    "sa4name":"Ballarat",
    "Post_Code":50902,
    "value":2431.218,
    "Installations":1046,
    "long":2157.624586,
    "lat":-561.057168
  },
  {
    "Year":2011,
    "sa4name":"Bendigo",
    "Post_Code":87502,
    "value":4845.875,
    "Installations":2319,
    "long":3604.34159,
    "lat":-921.581791
  },
  {
    "Year":2011,
    "sa4name":"Geelong",
    "Post_Code":84569,
    "value":8018.832,
    "Installations":3442,
    "long":3751.2343433,
    "lat":-991.6892179
  },
  {
    "Year":2011,
    "sa4name":"Hume",
    "Post_Code":225285,
    "value":7107.394,
    "Installations":2773,
    "long":8919.4876713,
    "lat":-2239.95641243
  },
  {
    "Year":2011,
    "sa4name":"Latrobe - Gippsland",
    "Post_Code":330581,
    "value":15010.278,
    "Installations":5824,
    "long":12474.6198974,
    "lat":-3234.6433223
  },
  {
    "Year":2011,
    "sa4name":"Melbourne - Inner",
    "Post_Code":92319,
    "value":2711.546,
    "Installations":1232,
    "long":4349.2115062,
    "lat":-1134.24786374
  },
  {
    "Year":2011,
    "sa4name":"Melbourne - Inner East",
    "Post_Code":49911,
    "value":3512.791,
    "Installations":1615,
    "long":2321.480315,
    "lat":-604.99284
  },
  {
    "Year":2011,
    "sa4name":"Melbourne - Inner South",
    "Post_Code":73083,
    "value":5065.485,
    "Installations":2202,
    "long":3335.967619,
    "lat":-872.246244
  },
  {
    "Year":2011,
    "sa4name":"Melbourne - North East",
    "Post_Code":116645,
    "value":8120.266,
    "Installations":3545,
    "long":5078.952824,
    "lat":-1317.256197
  },
  {
    "Year":2011,
    "sa4name":"Melbourne - North West",
    "Post_Code":113912,
    "value":8672.052,
    "Installations":3800,
    "long":5069.059,
    "lat":-1314.652238
  },
  {
    "Year":2011,
    "sa4name":"Melbourne - Outer East",
    "Post_Code":154251,
    "value":9739.615,
    "Installations":4393,
    "long":6540.785905,
    "lat":-1701.82649054
  },
  {
    "Year":2011,
    "sa4name":"Melbourne - Outer East ",
    "Post_Code":3176,
    "value":0.0,
    "Installations":0,
    "long":145.23,
    "lat":-37.8992
  },
  {
    "Year":2011,
    "sa4name":"Melbourne - South East",
    "Post_Code":152591,
    "value":15845.563,
    "Installations":7262,
    "long":6249.452835,
    "lat":-1634.236672
  },
  {
    "Year":2011,
    "sa4name":"Melbourne - West",
    "Post_Code":102785,
    "value":16811.867,
    "Installations":7940,
    "long":4775.4959745,
    "lat":-1246.71414977
  },
  {
    "Year":2011,
    "sa4name":"Mornington Peninsula",
    "Post_Code":118184,
    "value":9054.481,
    "Installations":4130,
    "long":4496.551039,
    "lat":-1186.81035263
  },
  {
    "Year":2011,
    "sa4name":"North West",
    "Post_Code":289238,
    "value":7595.804,
    "Installations":2702,
    "long":11851.3009677,
    "lat":-2980.05910826
  },
  {
    "Year":2011,
    "sa4name":"Shepparton",
    "Post_Code":184674,
    "value":9643.31,
    "Installations":3727,
    "long":7406.0825331,
    "lat":-1853.02819011
  },
  {
    "Year":2011,
    "sa4name":"South Australia - South East",
    "Post_Code":6808,
    "value":92.246,
    "Installations":25,
    "long":282.7545389,
    "lat":-72.64635026
  },
  {
    "Year":2011,
    "sa4name":"Warrnambool and South West",
    "Post_Code":236816,
    "value":6128.494,
    "Installations":2278,
    "long":10281.1087042,
    "lat":-2740.52939767
  },
  {
    "Year":2012,
    "sa4name":"Ballarat",
    "Post_Code":50902,
    "value":3929.946,
    "Installations":1144,
    "long":2157.624586,
    "lat":-561.057168
  },
  {
    "Year":2012,
    "sa4name":"Bendigo",
    "Post_Code":87502,
    "value":5869.346,
    "Installations":1758,
    "long":3604.34159,
    "lat":-921.581791
  },
  {
    "Year":2012,
    "sa4name":"Geelong",
    "Post_Code":84569,
    "value":12595.218,
    "Installations":4204,
    "long":3751.2343433,
    "lat":-991.6892179
  },
  {
    "Year":2012,
    "sa4name":"Hume",
    "Post_Code":225285,
    "value":11602.585,
    "Installations":3193,
    "long":8919.4876713,
    "lat":-2239.95641243
  },
  {
    "Year":2012,
    "sa4name":"Latrobe - Gippsland",
    "Post_Code":330581,
    "value":17372.851,
    "Installations":5190,
    "long":12474.6198974,
    "lat":-3234.6433223
  },
  {
    "Year":2012,
    "sa4name":"Melbourne - Inner",
    "Post_Code":92319,
    "value":3059.292,
    "Installations":1087,
    "long":4349.2115062,
    "lat":-1134.24786374
  },
  {
    "Year":2012,
    "sa4name":"Melbourne - Inner East",
    "Post_Code":49911,
    "value":4074.894,
    "Installations":1348,
    "long":2321.480315,
    "lat":-604.99284
  },
  {
    "Year":2012,
    "sa4name":"Melbourne - Inner South",
    "Post_Code":73083,
    "value":6385.942,
    "Installations":2183,
    "long":3335.967619,
    "lat":-872.246244
  },
  {
    "Year":2012,
    "sa4name":"Melbourne - North East",
    "Post_Code":116645,
    "value":12605.64,
    "Installations":4339,
    "long":5078.952824,
    "lat":-1317.256197
  },
  {
    "Year":2012,
    "sa4name":"Melbourne - North West",
    "Post_Code":113912,
    "value":13931.73,
    "Installations":4632,
    "long":5069.059,
    "lat":-1314.652238
  },
  {
    "Year":2012,
    "sa4name":"Melbourne - Outer East",
    "Post_Code":154251,
    "value":14570.774,
    "Installations":4726,
    "long":6540.785905,
    "lat":-1701.82649054
  },
  {
    "Year":2012,
    "sa4name":"Melbourne - Outer East ",
    "Post_Code":3176,
    "value":0.0,
    "Installations":0,
    "long":145.23,
    "lat":-37.8992
  },
  {
    "Year":2012,
    "sa4name":"Melbourne - South East",
    "Post_Code":152591,
    "value":24567.311,
    "Installations":8584,
    "long":6249.452835,
    "lat":-1634.236672
  },
  {
    "Year":2012,
    "sa4name":"Melbourne - West",
    "Post_Code":102785,
    "value":26232.051,
    "Installations":9330,
    "long":4775.4959745,
    "lat":-1246.71414977
  },
  {
    "Year":2012,
    "sa4name":"Mornington Peninsula",
    "Post_Code":118184,
    "value":14307.817,
    "Installations":5043,
    "long":4496.551039,
    "lat":-1186.81035263
  },
  {
    "Year":2012,
    "sa4name":"North West",
    "Post_Code":289238,
    "value":11360.355,
    "Installations":2919,
    "long":11851.3009677,
    "lat":-2980.05910826
  },
  {
    "Year":2012,
    "sa4name":"Shepparton",
    "Post_Code":184674,
    "value":14901.21,
    "Installations":3877,
    "long":7406.0825331,
    "lat":-1853.02819011
  },
  {
    "Year":2012,
    "sa4name":"South Australia - South East",
    "Post_Code":6808,
    "value":314.27,
    "Installations":72,
    "long":282.7545389,
    "lat":-72.64635026
  },
  {
    "Year":2012,
    "sa4name":"Warrnambool and South West",
    "Post_Code":236816,
    "value":9897.653,
    "Installations":2609,
    "long":10281.1087042,
    "lat":-2740.52939767
  },
  {
    "Year":2013,
    "sa4name":"Ballarat",
    "Post_Code":50902,
    "value":2422.05,
    "Installations":659,
    "long":2157.624586,
    "lat":-561.057168
  },
  {
    "Year":2013,
    "sa4name":"Bendigo",
    "Post_Code":87502,
    "value":3669.171,
    "Installations":967,
    "long":3604.34159,
    "lat":-921.581791
  },
  {
    "Year":2013,
    "sa4name":"Geelong",
    "Post_Code":84569,
    "value":7093.905,
    "Installations":1924,
    "long":3751.2343433,
    "lat":-991.6892179
  },
  {
    "Year":2013,
    "sa4name":"Hume",
    "Post_Code":225285,
    "value":6842.914,
    "Installations":1685,
    "long":8919.4876713,
    "lat":-2239.95641243
  },
  {
    "Year":2013,
    "sa4name":"Latrobe - Gippsland",
    "Post_Code":330581,
    "value":12468.325,
    "Installations":3149,
    "long":12474.6198974,
    "lat":-3234.6433223
  },
  {
    "Year":2013,
    "sa4name":"Melbourne - Inner",
    "Post_Code":92319,
    "value":2535.591,
    "Installations":701,
    "long":4349.2115062,
    "lat":-1134.24786374
  },
  {
    "Year":2013,
    "sa4name":"Melbourne - Inner East",
    "Post_Code":49911,
    "value":2617.746,
    "Installations":669,
    "long":2321.480315,
    "lat":-604.99284
  },
  {
    "Year":2013,
    "sa4name":"Melbourne - Inner South",
    "Post_Code":73083,
    "value":4083.974,
    "Installations":1078,
    "long":3335.967619,
    "lat":-872.246244
  },
  {
    "Year":2013,
    "sa4name":"Melbourne - North East",
    "Post_Code":116645,
    "value":7294.196,
    "Installations":1991,
    "long":5078.952824,
    "lat":-1317.256197
  },
  {
    "Year":2013,
    "sa4name":"Melbourne - North West",
    "Post_Code":113912,
    "value":8592.124,
    "Installations":2217,
    "long":5069.059,
    "lat":-1314.652238
  },
  {
    "Year":2013,
    "sa4name":"Melbourne - Outer East",
    "Post_Code":154251,
    "value":8395.469,
    "Installations":2194,
    "long":6540.785905,
    "lat":-1701.82649054
  },
  {
    "Year":2013,
    "sa4name":"Melbourne - Outer East ",
    "Post_Code":3176,
    "value":0.0,
    "Installations":0,
    "long":145.23,
    "lat":-37.8992
  },
  {
    "Year":2013,
    "sa4name":"Melbourne - South East",
    "Post_Code":152591,
    "value":16001.475,
    "Installations":4090,
    "long":6249.452835,
    "lat":-1634.236672
  },
  {
    "Year":2013,
    "sa4name":"Melbourne - West",
    "Post_Code":102785,
    "value":15834.142,
    "Installations":4156,
    "long":4775.4959745,
    "lat":-1246.71414977
  },
  {
    "Year":2013,
    "sa4name":"Mornington Peninsula",
    "Post_Code":118184,
    "value":9162.838,
    "Installations":2462,
    "long":4496.551039,
    "lat":-1186.81035263
  },
  {
    "Year":2013,
    "sa4name":"North West",
    "Post_Code":289238,
    "value":7905.244,
    "Installations":1673,
    "long":11851.3009677,
    "lat":-2980.05910826
  },
  {
    "Year":2013,
    "sa4name":"Shepparton",
    "Post_Code":184674,
    "value":10615.538,
    "Installations":2354,
    "long":7406.0825331,
    "lat":-1853.02819011
  },
  {
    "Year":2013,
    "sa4name":"South Australia - South East",
    "Post_Code":6808,
    "value":149.55,
    "Installations":32,
    "long":282.7545389,
    "lat":-72.64635026
  },
  {
    "Year":2013,
    "sa4name":"Warrnambool and South West",
    "Post_Code":236816,
    "value":5930.384,
    "Installations":1383,
    "long":10281.1087042,
    "lat":-2740.52939767
  },
  {
    "Year":2014,
    "sa4name":"Ballarat",
    "Post_Code":50902,
    "value":3058.221,
    "Installations":646,
    "long":2157.624586,
    "lat":-561.057168
  },
  {
    "Year":2014,
    "sa4name":"Bendigo",
    "Post_Code":87502,
    "value":4807.927,
    "Installations":1128,
    "long":3604.34159,
    "lat":-921.581791
  },
  {
    "Year":2014,
    "sa4name":"Geelong",
    "Post_Code":84569,
    "value":8942.859,
    "Installations":2295,
    "long":3751.2343433,
    "lat":-991.6892179
  },
  {
    "Year":2014,
    "sa4name":"Hume",
    "Post_Code":225285,
    "value":8919.004,
    "Installations":2090,
    "long":8919.4876713,
    "lat":-2239.95641243
  },
  {
    "Year":2014,
    "sa4name":"Latrobe - Gippsland",
    "Post_Code":330581,
    "value":13693.66,
    "Installations":3288,
    "long":12474.6198974,
    "lat":-3234.6433223
  },
  {
    "Year":2014,
    "sa4name":"Melbourne - Inner",
    "Post_Code":92319,
    "value":4532.993,
    "Installations":1054,
    "long":4349.2115062,
    "lat":-1134.24786374
  },
  {
    "Year":2014,
    "sa4name":"Melbourne - Inner East",
    "Post_Code":49911,
    "value":3574.019,
    "Installations":896,
    "long":2321.480315,
    "lat":-604.99284
  },
  {
    "Year":2014,
    "sa4name":"Melbourne - Inner South",
    "Post_Code":73083,
    "value":7049.867,
    "Installations":1665,
    "long":3335.967619,
    "lat":-872.246244
  },
  {
    "Year":2014,
    "sa4name":"Melbourne - North East",
    "Post_Code":116645,
    "value":11852.453,
    "Installations":3211,
    "long":5078.952824,
    "lat":-1317.256197
  },
  {
    "Year":2014,
    "sa4name":"Melbourne - North West",
    "Post_Code":113912,
    "value":13744.933,
    "Installations":3064,
    "long":5069.059,
    "lat":-1314.652238
  },
  {
    "Year":2014,
    "sa4name":"Melbourne - Outer East",
    "Post_Code":154251,
    "value":12329.1,
    "Installations":2997,
    "long":6540.785905,
    "lat":-1701.82649054
  },
  {
    "Year":2014,
    "sa4name":"Melbourne - Outer East ",
    "Post_Code":3176,
    "value":0.0,
    "Installations":0,
    "long":145.23,
    "lat":-37.8992
  },
  {
    "Year":2014,
    "sa4name":"Melbourne - South East",
    "Post_Code":152591,
    "value":21398.311,
    "Installations":4948,
    "long":6249.452835,
    "lat":-1634.236672
  },
  {
    "Year":2014,
    "sa4name":"Melbourne - West",
    "Post_Code":102785,
    "value":20270.302,
    "Installations":4827,
    "long":4775.4959745,
    "lat":-1246.71414977
  },
  {
    "Year":2014,
    "sa4name":"Mornington Peninsula",
    "Post_Code":118184,
    "value":13629.671,
    "Installations":3364,
    "long":4496.551039,
    "lat":-1186.81035263
  },
  {
    "Year":2014,
    "sa4name":"North West",
    "Post_Code":289238,
    "value":7355.426,
    "Installations":1260,
    "long":11851.3009677,
    "lat":-2980.05910826
  },
  {
    "Year":2014,
    "sa4name":"Shepparton",
    "Post_Code":184674,
    "value":11226.175,
    "Installations":2145,
    "long":7406.0825331,
    "lat":-1853.02819011
  },
  {
    "Year":2014,
    "sa4name":"South Australia - South East",
    "Post_Code":6808,
    "value":104.815,
    "Installations":27,
    "long":282.7545389,
    "lat":-72.64635026
  },
  {
    "Year":2014,
    "sa4name":"Warrnambool and South West",
    "Post_Code":236816,
    "value":5210.053,
    "Installations":1200,
    "long":10281.1087042,
    "lat":-2740.52939767
  },
  {
    "Year":2015,
    "sa4name":"Ballarat",
    "Post_Code":50902,
    "value":2812.306,
    "Installations":526,
    "long":2157.624586,
    "lat":-561.057168
  },
  {
    "Year":2015,
    "sa4name":"Bendigo",
    "Post_Code":87502,
    "value":4382.415,
    "Installations":908,
    "long":3604.34159,
    "lat":-921.581791
  },
  {
    "Year":2015,
    "sa4name":"Geelong",
    "Post_Code":84569,
    "value":8395.405,
    "Installations":1812,
    "long":3751.2343433,
    "lat":-991.6892179
  },
  {
    "Year":2015,
    "sa4name":"Hume",
    "Post_Code":225285,
    "value":6687.885,
    "Installations":1325,
    "long":8919.4876713,
    "lat":-2239.95641243
  },
  {
    "Year":2015,
    "sa4name":"Latrobe - Gippsland",
    "Post_Code":330581,
    "value":11450.193,
    "Installations":2224,
    "long":12474.6198974,
    "lat":-3234.6433223
  },
  {
    "Year":2015,
    "sa4name":"Melbourne - Inner",
    "Post_Code":92319,
    "value":4513.148,
    "Installations":967,
    "long":4349.2115062,
    "lat":-1134.24786374
  },
  {
    "Year":2015,
    "sa4name":"Melbourne - Inner East",
    "Post_Code":49911,
    "value":3390.682,
    "Installations":757,
    "long":2321.480315,
    "lat":-604.99284
  },
  {
    "Year":2015,
    "sa4name":"Melbourne - Inner South",
    "Post_Code":73083,
    "value":6294.753,
    "Installations":1385,
    "long":3335.967619,
    "lat":-872.246244
  },
  {
    "Year":2015,
    "sa4name":"Melbourne - North East",
    "Post_Code":116645,
    "value":9609.302,
    "Installations":2246,
    "long":5078.952824,
    "lat":-1317.256197
  },
  {
    "Year":2015,
    "sa4name":"Melbourne - North West",
    "Post_Code":113912,
    "value":12018.971,
    "Installations":2378,
    "long":5069.059,
    "lat":-1314.652238
  },
  {
    "Year":2015,
    "sa4name":"Melbourne - Outer East",
    "Post_Code":154251,
    "value":10245.787,
    "Installations":2192,
    "long":6540.785905,
    "lat":-1701.82649054
  },
  {
    "Year":2015,
    "sa4name":"Melbourne - Outer East ",
    "Post_Code":3176,
    "value":0.0,
    "Installations":0,
    "long":145.23,
    "lat":-37.8992
  },
  {
    "Year":2015,
    "sa4name":"Melbourne - South East",
    "Post_Code":152591,
    "value":18849.744,
    "Installations":4122,
    "long":6249.452835,
    "lat":-1634.236672
  },
  {
    "Year":2015,
    "sa4name":"Melbourne - West",
    "Post_Code":102785,
    "value":18609.68,
    "Installations":4191,
    "long":4775.4959745,
    "lat":-1246.71414977
  },
  {
    "Year":2015,
    "sa4name":"Mornington Peninsula",
    "Post_Code":118184,
    "value":11382.493,
    "Installations":2600,
    "long":4496.551039,
    "lat":-1186.81035263
  },
  {
    "Year":2015,
    "sa4name":"North West",
    "Post_Code":289238,
    "value":7255.902,
    "Installations":1165,
    "long":11851.3009677,
    "lat":-2980.05910826
  },
  {
    "Year":2015,
    "sa4name":"Shepparton",
    "Post_Code":184674,
    "value":9560.597,
    "Installations":1630,
    "long":7406.0825331,
    "lat":-1853.02819011
  },
  {
    "Year":2015,
    "sa4name":"South Australia - South East",
    "Post_Code":6808,
    "value":60.1,
    "Installations":15,
    "long":282.7545389,
    "lat":-72.64635026
  },
  {
    "Year":2015,
    "sa4name":"Warrnambool and South West",
    "Post_Code":236816,
    "value":4495.28,
    "Installations":939,
    "long":10281.1087042,
    "lat":-2740.52939767
  },
  {
    "Year":2016,
    "sa4name":"Ballarat",
    "Post_Code":50902,
    "value":2782.594,
    "Installations":413,
    "long":2157.624586,
    "lat":-561.057168
  },
  {
    "Year":2016,
    "sa4name":"Bendigo",
    "Post_Code":87502,
    "value":3822.9,
    "Installations":752,
    "long":3604.34159,
    "lat":-921.581791
  },
  {
    "Year":2016,
    "sa4name":"Geelong",
    "Post_Code":84569,
    "value":8058.2,
    "Installations":1587,
    "long":3751.2343433,
    "lat":-991.6892179
  },
  {
    "Year":2016,
    "sa4name":"Hume",
    "Post_Code":225285,
    "value":6440.583,
    "Installations":1214,
    "long":8919.4876713,
    "lat":-2239.95641243
  },
  {
    "Year":2016,
    "sa4name":"Latrobe - Gippsland",
    "Post_Code":330581,
    "value":10193.463,
    "Installations":2000,
    "long":12474.6198974,
    "lat":-3234.6433223
  },
  {
    "Year":2016,
    "sa4name":"Melbourne - Inner",
    "Post_Code":92319,
    "value":4413.604,
    "Installations":785,
    "long":4349.2115062,
    "lat":-1134.24786374
  },
  {
    "Year":2016,
    "sa4name":"Melbourne - Inner East",
    "Post_Code":49911,
    "value":3144.427,
    "Installations":608,
    "long":2321.480315,
    "lat":-604.99284
  },
  {
    "Year":2016,
    "sa4name":"Melbourne - Inner South",
    "Post_Code":73083,
    "value":6142.691,
    "Installations":1026,
    "long":3335.967619,
    "lat":-872.246244
  },
  {
    "Year":2016,
    "sa4name":"Melbourne - North East",
    "Post_Code":116645,
    "value":9102.611,
    "Installations":1921,
    "long":5078.952824,
    "lat":-1317.256197
  },
  {
    "Year":2016,
    "sa4name":"Melbourne - North West",
    "Post_Code":113912,
    "value":11467.064,
    "Installations":1944,
    "long":5069.059,
    "lat":-1314.652238
  },
  {
    "Year":2016,
    "sa4name":"Melbourne - Outer East",
    "Post_Code":154251,
    "value":10395.937,
    "Installations":1991,
    "long":6540.785905,
    "lat":-1701.82649054
  },
  {
    "Year":2016,
    "sa4name":"Melbourne - Outer East ",
    "Post_Code":3176,
    "value":5.1,
    "Installations":1,
    "long":145.23,
    "lat":-37.8992
  },
  {
    "Year":2016,
    "sa4name":"Melbourne - South East",
    "Post_Code":152591,
    "value":16623.252,
    "Installations":3195,
    "long":6249.452835,
    "lat":-1634.236672
  },
  {
    "Year":2016,
    "sa4name":"Melbourne - West",
    "Post_Code":102785,
    "value":16499.898,
    "Installations":3237,
    "long":4775.4959745,
    "lat":-1246.71414977
  },
  {
    "Year":2016,
    "sa4name":"Mornington Peninsula",
    "Post_Code":118184,
    "value":10892.588,
    "Installations":2326,
    "long":4496.551039,
    "lat":-1186.81035263
  },
  {
    "Year":2016,
    "sa4name":"North West",
    "Post_Code":289238,
    "value":8538.413,
    "Installations":1174,
    "long":11851.3009677,
    "lat":-2980.05910826
  },
  {
    "Year":2016,
    "sa4name":"Shepparton",
    "Post_Code":184674,
    "value":11550.452,
    "Installations":1694,
    "long":7406.0825331,
    "lat":-1853.02819011
  },
  {
    "Year":2016,
    "sa4name":"South Australia - South East",
    "Post_Code":6808,
    "value":186.55,
    "Installations":21,
    "long":282.7545389,
    "lat":-72.64635026
  },
  {
    "Year":2016,
    "sa4name":"Warrnambool and South West",
    "Post_Code":236816,
    "value":4277.942,
    "Installations":868,
    "long":10281.1087042,
    "lat":-2740.52939767
  },
  {
    "Year":2017,
    "sa4name":"Ballarat",
    "Post_Code":50902,
    "value":4018.522,
    "Installations":616,
    "long":2157.624586,
    "lat":-561.057168
  },
  {
    "Year":2017,
    "sa4name":"Bendigo",
    "Post_Code":87502,
    "value":6290.27,
    "Installations":897,
    "long":3604.34159,
    "lat":-921.581791
  },
  {
    "Year":2017,
    "sa4name":"Geelong",
    "Post_Code":84569,
    "value":11671.413,
    "Installations":1769,
    "long":3751.2343433,
    "lat":-991.6892179
  },
  {
    "Year":2017,
    "sa4name":"Hume",
    "Post_Code":225285,
    "value":9026.306,
    "Installations":1436,
    "long":8919.4876713,
    "lat":-2239.95641243
  },
  {
    "Year":2017,
    "sa4name":"Latrobe - Gippsland",
    "Post_Code":330581,
    "value":17524.582,
    "Installations":2753,
    "long":12474.6198974,
    "lat":-3234.6433223
  },
  {
    "Year":2017,
    "sa4name":"Melbourne - Inner",
    "Post_Code":92319,
    "value":6034.6,
    "Installations":866,
    "long":4349.2115062,
    "lat":-1134.24786374
  },
  {
    "Year":2017,
    "sa4name":"Melbourne - Inner East",
    "Post_Code":49911,
    "value":4821.559,
    "Installations":792,
    "long":2321.480315,
    "lat":-604.99284
  },
  {
    "Year":2017,
    "sa4name":"Melbourne - Inner South",
    "Post_Code":73083,
    "value":9363.607,
    "Installations":1465,
    "long":3335.967619,
    "lat":-872.246244
  },
  {
    "Year":2017,
    "sa4name":"Melbourne - North East",
    "Post_Code":116645,
    "value":11923.154,
    "Installations":2064,
    "long":5078.952824,
    "lat":-1317.256197
  },
  {
    "Year":2017,
    "sa4name":"Melbourne - North West",
    "Post_Code":113912,
    "value":15413.058,
    "Installations":2111,
    "long":5069.059,
    "lat":-1314.652238
  },
  {
    "Year":2017,
    "sa4name":"Melbourne - Outer East",
    "Post_Code":154251,
    "value":14952.979,
    "Installations":2197,
    "long":6540.785905,
    "lat":-1701.82649054
  },
  {
    "Year":2017,
    "sa4name":"Melbourne - Outer East ",
    "Post_Code":3176,
    "value":0.0,
    "Installations":0,
    "long":145.23,
    "lat":-37.8992
  },
  {
    "Year":2017,
    "sa4name":"Melbourne - South East",
    "Post_Code":152591,
    "value":21859.689,
    "Installations":3607,
    "long":6249.452835,
    "lat":-1634.236672
  },
  {
    "Year":2017,
    "sa4name":"Melbourne - West",
    "Post_Code":102785,
    "value":22541.582,
    "Installations":3464,
    "long":4775.4959745,
    "lat":-1246.71414977
  },
  {
    "Year":2017,
    "sa4name":"Mornington Peninsula",
    "Post_Code":118184,
    "value":14798.726,
    "Installations":2604,
    "long":4496.551039,
    "lat":-1186.81035263
  },
  {
    "Year":2017,
    "sa4name":"North West",
    "Post_Code":289238,
    "value":11930.532,
    "Installations":1500,
    "long":11851.3009677,
    "lat":-2980.05910826
  },
  {
    "Year":2017,
    "sa4name":"Shepparton",
    "Post_Code":184674,
    "value":14523.166,
    "Installations":1924,
    "long":7406.0825331,
    "lat":-1853.02819011
  },
  {
    "Year":2017,
    "sa4name":"South Australia - South East",
    "Post_Code":6808,
    "value":122.93,
    "Installations":18,
    "long":282.7545389,
    "lat":-72.64635026
  },
  {
    "Year":2017,
    "sa4name":"Warrnambool and South West",
    "Post_Code":236816,
    "value":8709.012,
    "Installations":1303,
    "long":10281.1087042,
    "lat":-2740.52939767
  },
  {
    "Year":2018,
    "sa4name":"Ballarat",
    "Post_Code":50902,
    "value":6739.157,
    "Installations":966,
    "long":2157.624586,
    "lat":-561.057168
  },
  {
    "Year":2018,
    "sa4name":"Bendigo",
    "Post_Code":87502,
    "value":7957.513,
    "Installations":1233,
    "long":3604.34159,
    "lat":-921.581791
  },
  {
    "Year":2018,
    "sa4name":"Geelong",
    "Post_Code":84569,
    "value":17396.377,
    "Installations":2511,
    "long":3751.2343433,
    "lat":-991.6892179
  },
  {
    "Year":2018,
    "sa4name":"Hume",
    "Post_Code":225285,
    "value":14936.246,
    "Installations":2146,
    "long":8919.4876713,
    "lat":-2239.95641243
  },
  {
    "Year":2018,
    "sa4name":"Latrobe - Gippsland",
    "Post_Code":330581,
    "value":27039.886,
    "Installations":3675,
    "long":12474.6198974,
    "lat":-3234.6433223
  },
  {
    "Year":2018,
    "sa4name":"Melbourne - Inner",
    "Post_Code":92319,
    "value":7745.617,
    "Installations":1099,
    "long":4349.2115062,
    "lat":-1134.24786374
  },
  {
    "Year":2018,
    "sa4name":"Melbourne - Inner East",
    "Post_Code":49911,
    "value":6985.994,
    "Installations":1036,
    "long":2321.480315,
    "lat":-604.99284
  },
  {
    "Year":2018,
    "sa4name":"Melbourne - Inner South",
    "Post_Code":73083,
    "value":13916.392,
    "Installations":1900,
    "long":3335.967619,
    "lat":-872.246244
  },
  {
    "Year":2018,
    "sa4name":"Melbourne - North East",
    "Post_Code":116645,
    "value":20825.607,
    "Installations":3228,
    "long":5078.952824,
    "lat":-1317.256197
  },
  {
    "Year":2018,
    "sa4name":"Melbourne - North West",
    "Post_Code":113912,
    "value":23767.897,
    "Installations":3327,
    "long":5069.059,
    "lat":-1314.652238
  },
  {
    "Year":2018,
    "sa4name":"Melbourne - Outer East",
    "Post_Code":154251,
    "value":23007.368,
    "Installations":3255,
    "long":6540.785905,
    "lat":-1701.82649054
  },
  {
    "Year":2018,
    "sa4name":"Melbourne - Outer East ",
    "Post_Code":3176,
    "value":0.0,
    "Installations":0,
    "long":145.23,
    "lat":-37.8992
  },
  {
    "Year":2018,
    "sa4name":"Melbourne - South East",
    "Post_Code":152591,
    "value":45523.98,
    "Installations":6516,
    "long":6249.452835,
    "lat":-1634.236672
  },
  {
    "Year":2018,
    "sa4name":"Melbourne - West",
    "Post_Code":102785,
    "value":41970.101,
    "Installations":5877,
    "long":4775.4959745,
    "lat":-1246.71414977
  },
  {
    "Year":2018,
    "sa4name":"Mornington Peninsula",
    "Post_Code":118184,
    "value":26159.394,
    "Installations":3873,
    "long":4496.551039,
    "lat":-1186.81035263
  },
  {
    "Year":2018,
    "sa4name":"North West",
    "Post_Code":289238,
    "value":19355.313,
    "Installations":2141,
    "long":11851.3009677,
    "lat":-2980.05910826
  },
  {
    "Year":2018,
    "sa4name":"Shepparton",
    "Post_Code":184674,
    "value":21927.544,
    "Installations":2715,
    "long":7406.0825331,
    "lat":-1853.02819011
  },
  {
    "Year":2018,
    "sa4name":"South Australia - South East",
    "Post_Code":6808,
    "value":226.3,
    "Installations":34,
    "long":282.7545389,
    "lat":-72.64635026
  },
  {
    "Year":2018,
    "sa4name":"Warrnambool and South West",
    "Post_Code":236816,
    "value":13416.739,
    "Installations":1712,
    "long":10281.1087042,
    "lat":-2740.52939767
  },
  {
    "Year":2019,
    "sa4name":"Ballarat",
    "Post_Code":50902,
    "value":8457.465,
    "Installations":1132,
    "long":2157.624586,
    "lat":-561.057168
  },
  {
    "Year":2019,
    "sa4name":"Bendigo",
    "Post_Code":87502,
    "value":11011.25,
    "Installations":1583,
    "long":3604.34159,
    "lat":-921.581791
  },
  {
    "Year":2019,
    "sa4name":"Geelong",
    "Post_Code":84569,
    "value":22891.358,
    "Installations":3387,
    "long":3751.2343433,
    "lat":-991.6892179
  },
  {
    "Year":2019,
    "sa4name":"Hume",
    "Post_Code":225285,
    "value":16910.904,
    "Installations":2222,
    "long":8919.4876713,
    "lat":-2239.95641243
  },
  {
    "Year":2019,
    "sa4name":"Latrobe - Gippsland",
    "Post_Code":330581,
    "value":30882.274,
    "Installations":3844,
    "long":12474.6198974,
    "lat":-3234.6433223
  },
  {
    "Year":2019,
    "sa4name":"Melbourne - Inner",
    "Post_Code":92319,
    "value":10854.666,
    "Installations":1467,
    "long":4349.2115062,
    "lat":-1134.24786374
  },
  {
    "Year":2019,
    "sa4name":"Melbourne - Inner East",
    "Post_Code":49911,
    "value":12271.198,
    "Installations":1685,
    "long":2321.480315,
    "lat":-604.99284
  },
  {
    "Year":2019,
    "sa4name":"Melbourne - Inner South",
    "Post_Code":73083,
    "value":18155.326,
    "Installations":2504,
    "long":3335.967619,
    "lat":-872.246244
  },
  {
    "Year":2019,
    "sa4name":"Melbourne - North East",
    "Post_Code":116645,
    "value":30252.88,
    "Installations":4369,
    "long":5078.952824,
    "lat":-1317.256197
  },
  {
    "Year":2019,
    "sa4name":"Melbourne - North West",
    "Post_Code":113912,
    "value":33667.023,
    "Installations":4461,
    "long":5069.059,
    "lat":-1314.652238
  },
  {
    "Year":2019,
    "sa4name":"Melbourne - Outer East",
    "Post_Code":154251,
    "value":32824.396,
    "Installations":4415,
    "long":6540.785905,
    "lat":-1701.82649054
  },
  {
    "Year":2019,
    "sa4name":"Melbourne - Outer East ",
    "Post_Code":3176,
    "value":0.0,
    "Installations":0,
    "long":145.23,
    "lat":-37.8992
  },
  {
    "Year":2019,
    "sa4name":"Melbourne - South East",
    "Post_Code":152591,
    "value":67344.818,
    "Installations":9286,
    "long":6249.452835,
    "lat":-1634.236672
  },
  {
    "Year":2019,
    "sa4name":"Melbourne - West",
    "Post_Code":102785,
    "value":66793.616,
    "Installations":9368,
    "long":4775.4959745,
    "lat":-1246.71414977
  },
  {
    "Year":2019,
    "sa4name":"Mornington Peninsula",
    "Post_Code":118184,
    "value":35091.389,
    "Installations":4967,
    "long":4496.551039,
    "lat":-1186.81035263
  },
  {
    "Year":2019,
    "sa4name":"North West",
    "Post_Code":289238,
    "value":19167.577,
    "Installations":2003,
    "long":11851.3009677,
    "lat":-2980.05910826
  },
  {
    "Year":2019,
    "sa4name":"Shepparton",
    "Post_Code":184674,
    "value":26048.725,
    "Installations":3047,
    "long":7406.0825331,
    "lat":-1853.02819011
  },
  {
    "Year":2019,
    "sa4name":"South Australia - South East",
    "Post_Code":6808,
    "value":456.97,
    "Installations":38,
    "long":282.7545389,
    "lat":-72.64635026
  },
  {
    "Year":2019,
    "sa4name":"Warrnambool and South West",
    "Post_Code":236816,
    "value":17864.395,
    "Installations":2006,
    "long":10281.1087042,
    "lat":-2740.52939767
  },
  {
    "Year":2020,
    "sa4name":"Ballarat",
    "Post_Code":50902,
    "value":10808.27,
    "Installations":1415,
    "long":2157.624586,
    "lat":-561.057168
  },
  {
    "Year":2020,
    "sa4name":"Bendigo",
    "Post_Code":87502,
    "value":13054.325,
    "Installations":1845,
    "long":3604.34159,
    "lat":-921.581791
  },
  {
    "Year":2020,
    "sa4name":"Geelong",
    "Post_Code":84569,
    "value":27839.951,
    "Installations":3944,
    "long":3751.2343433,
    "lat":-991.6892179
  },
  {
    "Year":2020,
    "sa4name":"Hume",
    "Post_Code":225285,
    "value":24725.166,
    "Installations":3063,
    "long":8919.4876713,
    "lat":-2239.95641243
  },
  {
    "Year":2020,
    "sa4name":"Latrobe - Gippsland",
    "Post_Code":330581,
    "value":36131.286,
    "Installations":4514,
    "long":12474.6198974,
    "lat":-3234.6433223
  },
  {
    "Year":2020,
    "sa4name":"Melbourne - Inner",
    "Post_Code":92319,
    "value":10251.783,
    "Installations":1321,
    "long":4349.2115062,
    "lat":-1134.24786374
  },
  {
    "Year":2020,
    "sa4name":"Melbourne - Inner East",
    "Post_Code":49911,
    "value":13941.485,
    "Installations":1861,
    "long":2321.480315,
    "lat":-604.99284
  },
  {
    "Year":2020,
    "sa4name":"Melbourne - Inner South",
    "Post_Code":73083,
    "value":20762.502,
    "Installations":2662,
    "long":3335.967619,
    "lat":-872.246244
  },
  {
    "Year":2020,
    "sa4name":"Melbourne - North East",
    "Post_Code":116645,
    "value":39690.03,
    "Installations":5614,
    "long":5078.952824,
    "lat":-1317.256197
  },
  {
    "Year":2020,
    "sa4name":"Melbourne - North West",
    "Post_Code":113912,
    "value":49739.83,
    "Installations":6344,
    "long":5069.059,
    "lat":-1314.652238
  },
  {
    "Year":2020,
    "sa4name":"Melbourne - Outer East",
    "Post_Code":154251,
    "value":36618.71,
    "Installations":4828,
    "long":6540.785905,
    "lat":-1701.82649054
  },
  {
    "Year":2020,
    "sa4name":"Melbourne - Outer East ",
    "Post_Code":3176,
    "value":0.0,
    "Installations":0,
    "long":145.23,
    "lat":-37.8992
  },
  {
    "Year":2020,
    "sa4name":"Melbourne - South East",
    "Post_Code":152591,
    "value":83046.006,
    "Installations":10943,
    "long":6249.452835,
    "lat":-1634.236672
  },
  {
    "Year":2020,
    "sa4name":"Melbourne - West",
    "Post_Code":102785,
    "value":85673.585,
    "Installations":11337,
    "long":4775.4959745,
    "lat":-1246.71414977
  },
  {
    "Year":2020,
    "sa4name":"Mornington Peninsula",
    "Post_Code":118184,
    "value":42044.14,
    "Installations":5588,
    "long":4496.551039,
    "lat":-1186.81035263
  },
  {
    "Year":2020,
    "sa4name":"North West",
    "Post_Code":289238,
    "value":27409.12,
    "Installations":2778,
    "long":11851.3009677,
    "lat":-2980.05910826
  },
  {
    "Year":2020,
    "sa4name":"Shepparton",
    "Post_Code":184674,
    "value":34178.265,
    "Installations":4063,
    "long":7406.0825331,
    "lat":-1853.02819011
  },
  {
    "Year":2020,
    "sa4name":"South Australia - South East",
    "Post_Code":6808,
    "value":294.555,
    "Installations":27,
    "long":282.7545389,
    "lat":-72.64635026
  },
  {
    "Year":2020,
    "sa4name":"Warrnambool and South West",
    "Post_Code":236816,
    "value":18234.59,
    "Installations":2194,
    "long":10281.1087042,
    "lat":-2740.52939767
  },
  {
    "Year":2021,
    "sa4name":"Ballarat",
    "Post_Code":50902,
    "value":12280.674,
    "Installations":1428,
    "long":2157.624586,
    "lat":-561.057168
  },
  {
    "Year":2021,
    "sa4name":"Bendigo",
    "Post_Code":87502,
    "value":14302.201,
    "Installations":1816,
    "long":3604.34159,
    "lat":-921.581791
  },
  {
    "Year":2021,
    "sa4name":"Geelong",
    "Post_Code":84569,
    "value":31709.55,
    "Installations":4139,
    "long":3751.2343433,
    "lat":-991.6892179
  },
  {
    "Year":2021,
    "sa4name":"Hume",
    "Post_Code":225285,
    "value":25932.744,
    "Installations":2991,
    "long":8919.4876713,
    "lat":-2239.95641243
  },
  {
    "Year":2021,
    "sa4name":"Latrobe - Gippsland",
    "Post_Code":330581,
    "value":40099.19,
    "Installations":4701,
    "long":12474.6198974,
    "lat":-3234.6433223
  },
  {
    "Year":2021,
    "sa4name":"Melbourne - Inner",
    "Post_Code":92319,
    "value":13017.899,
    "Installations":1619,
    "long":4349.2115062,
    "lat":-1134.24786374
  },
  {
    "Year":2021,
    "sa4name":"Melbourne - Inner East",
    "Post_Code":49911,
    "value":18346.879,
    "Installations":2408,
    "long":2321.480315,
    "lat":-604.99284
  },
  {
    "Year":2021,
    "sa4name":"Melbourne - Inner South",
    "Post_Code":73083,
    "value":27921.481,
    "Installations":3411,
    "long":3335.967619,
    "lat":-872.246244
  },
  {
    "Year":2021,
    "sa4name":"Melbourne - North East",
    "Post_Code":116645,
    "value":48169.542,
    "Installations":6337,
    "long":5078.952824,
    "lat":-1317.256197
  },
  {
    "Year":2021,
    "sa4name":"Melbourne - North West",
    "Post_Code":113912,
    "value":63153.348,
    "Installations":7633,
    "long":5069.059,
    "lat":-1314.652238
  },
  {
    "Year":2021,
    "sa4name":"Melbourne - Outer East",
    "Post_Code":154251,
    "value":45746.455,
    "Installations":5781,
    "long":6540.785905,
    "lat":-1701.82649054
  },
  {
    "Year":2021,
    "sa4name":"Melbourne - Outer East ",
    "Post_Code":3176,
    "value":0.0,
    "Installations":0,
    "long":145.23,
    "lat":-37.8992
  },
  {
    "Year":2021,
    "sa4name":"Melbourne - South East",
    "Post_Code":152591,
    "value":97492.54,
    "Installations":12128,
    "long":6249.452835,
    "lat":-1634.236672
  },
  {
    "Year":2021,
    "sa4name":"Melbourne - West",
    "Post_Code":102785,
    "value":111065.39,
    "Installations":14626,
    "long":4775.4959745,
    "lat":-1246.71414977
  },
  {
    "Year":2021,
    "sa4name":"Mornington Peninsula",
    "Post_Code":118184,
    "value":48423.209,
    "Installations":6059,
    "long":4496.551039,
    "lat":-1186.81035263
  },
  {
    "Year":2021,
    "sa4name":"North West",
    "Post_Code":289238,
    "value":25702.75,
    "Installations":2523,
    "long":11851.3009677,
    "lat":-2980.05910826
  },
  {
    "Year":2021,
    "sa4name":"Shepparton",
    "Post_Code":184674,
    "value":34719.355,
    "Installations":3555,
    "long":7406.0825331,
    "lat":-1853.02819011
  },
  {
    "Year":2021,
    "sa4name":"South Australia - South East",
    "Post_Code":6808,
    "value":398.785,
    "Installations":37,
    "long":282.7545389,
    "lat":-72.64635026
  },
  {
    "Year":2021,
    "sa4name":"Warrnambool and South West",
    "Post_Code":236816,
    "value":17646.56,
    "Installations":1988,
    "long":10281.1087042,
    "lat":-2740.52939767
  },
  {
    "Year":2022,
    "sa4name":"Ballarat",
    "Post_Code":50902,
    "value":10537.46,
    "Installations":1221,
    "long":2157.624586,
    "lat":-561.057168
  },
  {
    "Year":2022,
    "sa4name":"Bendigo",
    "Post_Code":87502,
    "value":12073.342,
    "Installations":1539,
    "long":3604.34159,
    "lat":-921.581791
  },
  {
    "Year":2022,
    "sa4name":"Geelong",
    "Post_Code":84569,
    "value":30574.417,
    "Installations":3773,
    "long":3751.2343433,
    "lat":-991.6892179
  },
  {
    "Year":2022,
    "sa4name":"Hume",
    "Post_Code":225285,
    "value":21452.96,
    "Installations":2432,
    "long":8919.4876713,
    "lat":-2239.95641243
  },
  {
    "Year":2022,
    "sa4name":"Latrobe - Gippsland",
    "Post_Code":330581,
    "value":35504.814,
    "Installations":4162,
    "long":12474.6198974,
    "lat":-3234.6433223
  },
  {
    "Year":2022,
    "sa4name":"Melbourne - Inner",
    "Post_Code":92319,
    "value":13941.093,
    "Installations":1546,
    "long":4349.2115062,
    "lat":-1134.24786374
  },
  {
    "Year":2022,
    "sa4name":"Melbourne - Inner East",
    "Post_Code":49911,
    "value":15875.587,
    "Installations":1974,
    "long":2321.480315,
    "lat":-604.99284
  },
  {
    "Year":2022,
    "sa4name":"Melbourne - Inner South",
    "Post_Code":73083,
    "value":28233.21,
    "Installations":3160,
    "long":3335.967619,
    "lat":-872.246244
  },
  {
    "Year":2022,
    "sa4name":"Melbourne - North East",
    "Post_Code":116645,
    "value":37105.125,
    "Installations":4532,
    "long":5078.952824,
    "lat":-1317.256197
  },
  {
    "Year":2022,
    "sa4name":"Melbourne - North West",
    "Post_Code":113912,
    "value":45096.473,
    "Installations":4989,
    "long":5069.059,
    "lat":-1314.652238
  },
  {
    "Year":2022,
    "sa4name":"Melbourne - Outer East",
    "Post_Code":154251,
    "value":39622.816,
    "Installations":4478,
    "long":6540.785905,
    "lat":-1701.82649054
  },
  {
    "Year":2022,
    "sa4name":"Melbourne - Outer East ",
    "Post_Code":3176,
    "value":0.0,
    "Installations":0,
    "long":145.23,
    "lat":-37.8992
  },
  {
    "Year":2022,
    "sa4name":"Melbourne - South East",
    "Post_Code":152591,
    "value":68671.805,
    "Installations":7848,
    "long":6249.452835,
    "lat":-1634.236672
  },
  {
    "Year":2022,
    "sa4name":"Melbourne - West",
    "Post_Code":102785,
    "value":76940.3,
    "Installations":9179,
    "long":4775.4959745,
    "lat":-1246.71414977
  },
  {
    "Year":2022,
    "sa4name":"Mornington Peninsula",
    "Post_Code":118184,
    "value":40020.651,
    "Installations":4668,
    "long":4496.551039,
    "lat":-1186.81035263
  },
  {
    "Year":2022,
    "sa4name":"North West",
    "Post_Code":289238,
    "value":21039.38,
    "Installations":2116,
    "long":11851.3009677,
    "lat":-2980.05910826
  },
  {
    "Year":2022,
    "sa4name":"Shepparton",
    "Post_Code":184674,
    "value":28701.212,
    "Installations":3040,
    "long":7406.0825331,
    "lat":-1853.02819011
  },
  {
    "Year":2022,
    "sa4name":"South Australia - South East",
    "Post_Code":6808,
    "value":383.56,
    "Installations":39,
    "long":282.7545389,
    "lat":-72.64635026
  },
  {
    "Year":2022,
    "sa4name":"Warrnambool and South West",
    "Post_Code":236816,
    "value":16768.1,
    "Installations":1826,
    "long":10281.1087042,
    "lat":-2740.52939767
  },
  {
    "Year":2023,
    "sa4name":"Ballarat",
    "Post_Code":50902,
    "value":11652.76,
    "Installations":1342,
    "long":2157.624586,
    "lat":-561.057168
  },
  {
    "Year":2023,
    "sa4name":"Bendigo",
    "Post_Code":87502,
    "value":12466.147,
    "Installations":1545,
    "long":3604.34159,
    "lat":-921.581791
  },
  {
    "Year":2023,
    "sa4name":"Geelong",
    "Post_Code":84569,
    "value":34286.617,
    "Installations":4123,
    "long":3751.2343433,
    "lat":-991.6892179
  },
  {
    "Year":2023,
    "sa4name":"Hume",
    "Post_Code":225285,
    "value":24140.895,
    "Installations":2668,
    "long":8919.4876713,
    "lat":-2239.95641243
  },
  {
    "Year":2023,
    "sa4name":"Latrobe - Gippsland",
    "Post_Code":330581,
    "value":37887.835,
    "Installations":4224,
    "long":12474.6198974,
    "lat":-3234.6433223
  },
  {
    "Year":2023,
    "sa4name":"Melbourne - Inner",
    "Post_Code":92319,
    "value":14196.105,
    "Installations":1612,
    "long":4349.2115062,
    "lat":-1134.24786374
  },
  {
    "Year":2023,
    "sa4name":"Melbourne - Inner East",
    "Post_Code":49911,
    "value":17778.78,
    "Installations":1979,
    "long":2321.480315,
    "lat":-604.99284
  },
  {
    "Year":2023,
    "sa4name":"Melbourne - Inner South",
    "Post_Code":73083,
    "value":30011.555,
    "Installations":3288,
    "long":3335.967619,
    "lat":-872.246244
  },
  {
    "Year":2023,
    "sa4name":"Melbourne - North East",
    "Post_Code":116645,
    "value":41429.975,
    "Installations":4841,
    "long":5078.952824,
    "lat":-1317.256197
  },
  {
    "Year":2023,
    "sa4name":"Melbourne - North West",
    "Post_Code":113912,
    "value":48180.017,
    "Installations":5180,
    "long":5069.059,
    "lat":-1314.652238
  },
  {
    "Year":2023,
    "sa4name":"Melbourne - Outer East",
    "Post_Code":154251,
    "value":43496.936,
    "Installations":4907,
    "long":6540.785905,
    "lat":-1701.82649054
  },
  {
    "Year":2023,
    "sa4name":"Melbourne - Outer East ",
    "Post_Code":3176,
    "value":0.0,
    "Installations":0,
    "long":145.23,
    "lat":-37.8992
  },
  {
    "Year":2023,
    "sa4name":"Melbourne - South East",
    "Post_Code":152591,
    "value":77588.592,
    "Installations":8336,
    "long":6249.452835,
    "lat":-1634.236672
  },
  {
    "Year":2023,
    "sa4name":"Melbourne - West",
    "Post_Code":102785,
    "value":86725.605,
    "Installations":10243,
    "long":4775.4959745,
    "lat":-1246.71414977
  },
  {
    "Year":2023,
    "sa4name":"Mornington Peninsula",
    "Post_Code":118184,
    "value":43260.582,
    "Installations":4821,
    "long":4496.551039,
    "lat":-1186.81035263
  },
  {
    "Year":2023,
    "sa4name":"North West",
    "Post_Code":289238,
    "value":20847.02,
    "Installations":2091,
    "long":11851.3009677,
    "lat":-2980.05910826
  },
  {
    "Year":2023,
    "sa4name":"Shepparton",
    "Post_Code":184674,
    "value":27704.765,
    "Installations":2909,
    "long":7406.0825331,
    "lat":-1853.02819011
  },
  {
    "Year":2023,
    "sa4name":"South Australia - South East",
    "Post_Code":6808,
    "value":447.055,
    "Installations":58,
    "long":282.7545389,
    "lat":-72.64635026
  },
  {
    "Year":2023,
    "sa4name":"Warrnambool and South West",
    "Post_Code":236816,
    "value":21121.285,
    "Installations":1993,
    "long":10281.1087042,
    "lat":-2740.52939767
  },
  {
    "Year":2024,
    "sa4name":"Ballarat",
    "Post_Code":50902,
    "value":1565.35,
    "Installations":198,
    "long":2157.624586,
    "lat":-561.057168
  },
  {
    "Year":2024,
    "sa4name":"Bendigo",
    "Post_Code":87502,
    "value":1731.2,
    "Installations":238,
    "long":3604.34159,
    "lat":-921.581791
  },
  {
    "Year":2024,
    "sa4name":"Geelong",
    "Post_Code":84569,
    "value":4397.205,
    "Installations":550,
    "long":3751.2343433,
    "lat":-991.6892179
  },
  {
    "Year":2024,
    "sa4name":"Hume",
    "Post_Code":225285,
    "value":3273.345,
    "Installations":371,
    "long":8919.4876713,
    "lat":-2239.95641243
  },
  {
    "Year":2024,
    "sa4name":"Latrobe - Gippsland",
    "Post_Code":330581,
    "value":4365.63,
    "Installations":530,
    "long":12474.6198974,
    "lat":-3234.6433223
  },
  {
    "Year":2024,
    "sa4name":"Melbourne - Inner",
    "Post_Code":92319,
    "value":1771.66,
    "Installations":210,
    "long":4349.2115062,
    "lat":-1134.24786374
  },
  {
    "Year":2024,
    "sa4name":"Melbourne - Inner East",
    "Post_Code":49911,
    "value":2149.36,
    "Installations":265,
    "long":2321.480315,
    "lat":-604.99284
  },
  {
    "Year":2024,
    "sa4name":"Melbourne - Inner South",
    "Post_Code":73083,
    "value":3695.68,
    "Installations":466,
    "long":3335.967619,
    "lat":-872.246244
  },
  {
    "Year":2024,
    "sa4name":"Melbourne - North East",
    "Post_Code":116645,
    "value":5620.325,
    "Installations":675,
    "long":5078.952824,
    "lat":-1317.256197
  },
  {
    "Year":2024,
    "sa4name":"Melbourne - North West",
    "Post_Code":113912,
    "value":6588.725,
    "Installations":770,
    "long":5069.059,
    "lat":-1314.652238
  },
  {
    "Year":2024,
    "sa4name":"Melbourne - Outer East",
    "Post_Code":154251,
    "value":5837.105,
    "Installations":714,
    "long":6540.785905,
    "lat":-1701.82649054
  },
  {
    "Year":2024,
    "sa4name":"Melbourne - Outer East ",
    "Post_Code":3176,
    "value":0.0,
    "Installations":0,
    "long":145.23,
    "lat":-37.8992
  },
  {
    "Year":2024,
    "sa4name":"Melbourne - South East",
    "Post_Code":152591,
    "value":11408.47,
    "Installations":1409,
    "long":6249.452835,
    "lat":-1634.236672
  },
  {
    "Year":2024,
    "sa4name":"Melbourne - West",
    "Post_Code":102785,
    "value":13011.305,
    "Installations":1643,
    "long":4775.4959745,
    "lat":-1246.71414977
  },
  {
    "Year":2024,
    "sa4name":"Mornington Peninsula",
    "Post_Code":118184,
    "value":6723.05,
    "Installations":804,
    "long":4496.551039,
    "lat":-1186.81035263
  },
  {
    "Year":2024,
    "sa4name":"North West",
    "Post_Code":289238,
    "value":1862.365,
    "Installations":219,
    "long":11851.3009677,
    "lat":-2980.05910826
  },
  {
    "Year":2024,
    "sa4name":"Shepparton",
    "Post_Code":184674,
    "value":3509.055,
    "Installations":388,
    "long":7406.0825331,
    "lat":-1853.02819011
  },
  {
    "Year":2024,
    "sa4name":"South Australia - South East",
    "Post_Code":6808,
    "value":13.24,
    "Installations":2,
    "long":282.7545389,
    "lat":-72.64635026
  },
  {
    "Year":2024,
    "sa4name":"Warrnambool and South West",
    "Post_Code":236816,
    "value":1882.765,
    "Installations":213,
    "long":10281.1087042,
    "lat":-2740.52939767
  }
]